{"type":"FeatureCollection", "features": [
{"type":"Feature","geometry":{"type":"Polygon","coordinates":[[[79.155821,21.154702],[79.156102,21.154744],[79.156493,21.154659],[79.156984,21.15432],[79.157537,21.154155],[79.157842,21.154124],[79.158194,21.154177],[79.158231,21.154415],[79.158151,21.154622],[79.157996,21.155163],[79.157917,21.155561],[79.157982,21.1559],[79.158428,21.156299],[79.158695,21.156344],[79.159319,21.156054],[79.159563,21.156037],[79.159724,21.156086],[79.159757,21.156197],[79.15982,21.156851],[79.159953,21.156983],[79.160367,21.157098],[79.160872,21.157114],[79.161377,21.157262],[79.161761,21.15741],[79.162584,21.157956],[79.163394,21.158023],[79.164043,21.1585],[79.164949,21.158815],[79.1651,21.159067],[79.165109,21.159454],[79.165082,21.159957],[79.165148,21.16021],[79.165863,21.160738],[79.166673,21.161619],[79.167035,21.161768],[79.167402,21.161841],[79.167733,21.162017],[79.168281,21.16258],[79.168503,21.162661],[79.168786,21.16259],[79.16937,21.162049],[79.170548,21.162365],[79.170953,21.162258],[79.171189,21.161993],[79.171412,21.161967],[79.171794,21.162099],[79.172932,21.1629],[79.173901,21.162602],[79.17468,21.162784],[79.174827,21.163062],[79.174714,21.1636],[79.17488,21.164197],[79.175148,21.164822],[79.176115,21.165474],[79.176899,21.16588],[79.176097,21.166168],[79.175441,21.166721],[79.173818,21.169876],[79.173199,21.170547],[79.172365,21.171784],[79.171493,21.172488],[79.171014,21.172955],[79.170313,21.174193],[79.169637,21.174516],[79.168806,21.174553],[79.168743,21.174576],[79.168407,21.175103],[79.168697,21.176071],[79.169291,21.177414],[79.170321,21.180756],[79.170725,21.183041],[79.170407,21.183435],[79.169437,21.183801],[79.16849,21.184464],[79.166965,21.18618],[79.166125,21.186924],[79.164903,21.187478],[79.16385,21.187663],[79.162262,21.18767],[79.16132,21.187962],[79.160599,21.188387],[79.1598,21.189197],[79.158726,21.188268],[79.157512,21.188376],[79.156694,21.188143],[79.155939,21.187352],[79.155865,21.187124],[79.155734,21.18704],[79.155577,21.186662],[79.155458,21.186665],[79.155444,21.186499],[79.155291,21.186296],[79.155133,21.186228],[79.154948,21.18627],[79.154798,21.186006],[79.154606,21.185983],[79.154242,21.185744],[79.152714,21.1859],[79.151834,21.185428],[79.151203,21.185964],[79.150458,21.186176],[79.15,21.185995],[79.149885,21.185854],[79.149712,21.185946],[79.149428,21.185849],[79.149267,21.185613],[79.149252,21.185203],[79.148921,21.184998],[79.148566,21.18487],[79.148438,21.184861],[79.148124,21.185223],[79.148211,21.18551],[79.148135,21.185897],[79.147844,21.186027],[79.147523,21.18599],[79.1474,21.185829],[79.147094,21.1857],[79.146501,21.185712],[79.145942,21.186008],[79.145798,21.186361],[79.14585,21.186654],[79.146251,21.186795],[79.146344,21.187054],[79.146042,21.187361],[79.146074,21.187702],[79.146021,21.187757],[79.146284,21.188686],[79.145954,21.189358],[79.145581,21.18961],[79.145155,21.189599],[79.144477,21.189064],[79.143871,21.189156],[79.143805,21.189425],[79.142625,21.190305],[79.142253,21.191206],[79.141251,21.191246],[79.140774,21.191151],[79.1404,21.19084],[79.139943,21.190752],[79.139475,21.191287],[79.139079,21.191292],[79.138331,21.191098],[79.138075,21.191383],[79.137698,21.192169],[79.13738,21.192274],[79.137328,21.192366],[79.136551,21.19257],[79.136253,21.192694],[79.135681,21.193944],[79.13527,21.19417],[79.134425,21.193804],[79.133647,21.193669],[79.134226,21.19502],[79.134182,21.19591],[79.133639,21.195334],[79.131475,21.194038],[79.132564,21.190788],[79.134422,21.185495],[79.134612,21.18257],[79.135233,21.172906],[79.135437,21.169315],[79.135503,21.167784],[79.137192,21.167932],[79.138385,21.168062],[79.146724,21.169076],[79.147971,21.169268],[79.149638,21.169662],[79.149972,21.169766],[79.150672,21.170019],[79.15237,21.170787],[79.152445,21.170351],[79.1524,21.168961],[79.152429,21.167208],[79.152183,21.165824],[79.152089,21.165214],[79.151995,21.164765],[79.151806,21.163707],[79.151769,21.163696],[79.150785,21.163856],[79.149698,21.164016],[79.148667,21.163132],[79.149492,21.162336],[79.149876,21.161985],[79.149129,21.161282],[79.148272,21.161243],[79.147984,21.161],[79.149427,21.159657],[79.149352,21.158704],[79.148762,21.15811],[79.149348,21.157666],[79.150424,21.158657],[79.151534,21.15912],[79.15157,21.157979],[79.151778,21.155692],[79.152593,21.155738],[79.152818,21.154587],[79.153698,21.154785],[79.155777,21.154994],[79.155821,21.154702]]]},"properties":{"name":"Prabhag No. 4","description":"Zone No 8. Lakadganj","styleUrl":"#poly-000000-1200-77","fill-opacity":0.30196078431372547,"fill":"#000000","stroke-opacity":1,"stroke":"#000000","stroke-width":1.2}},
{"type":"Feature","geometry":{"type":"Polygon","coordinates":[[[79.126769,21.157148],[79.126769,21.157147],[79.122698,21.157212],[79.122703,21.156074],[79.123651,21.155337],[79.124494,21.155213],[79.124427,21.153507],[79.124525,21.15002],[79.124717,21.146197],[79.124855,21.143204],[79.124967,21.142504],[79.124974,21.14145],[79.124972,21.14145],[79.128309,21.142057],[79.128292,21.141872],[79.12795,21.138818],[79.128186,21.138813],[79.133625,21.138789],[79.13392,21.140532],[79.134032,21.141073],[79.133904,21.142054],[79.134975,21.141761],[79.136283,21.141826],[79.137748,21.141965],[79.138832,21.142165],[79.139995,21.142463],[79.140679,21.142253],[79.14074,21.143315],[79.141305,21.144062],[79.141896,21.144558],[79.142582,21.144935],[79.143629,21.145243],[79.144077,21.145512],[79.145015,21.146248],[79.145491,21.1465],[79.145878,21.146553],[79.145879,21.146558],[79.145912,21.148004],[79.147091,21.148714],[79.138593,21.154112],[79.136516,21.155425],[79.135278,21.156038],[79.134575,21.156408],[79.132471,21.156905],[79.126769,21.157148]]]},"properties":{"name":"Prabhag No. 23\n","description":"Zone No 8. Lakadganj","styleUrl":"#poly-000000-1200-77","fill-opacity":0.30196078431372547,"fill":"#000000","stroke-opacity":1,"stroke":"#000000","stroke-width":1.2}},
{"type":"Feature","geometry":{"type":"Polygon","coordinates":[[[79.155821,21.154702],[79.155777,21.154994],[79.153698,21.154785],[79.152818,21.154587],[79.152593,21.155738],[79.151778,21.155692],[79.15157,21.157979],[79.151534,21.15912],[79.150424,21.158657],[79.149348,21.157666],[79.148762,21.15811],[79.149352,21.158704],[79.149427,21.159657],[79.147984,21.161],[79.148272,21.161243],[79.149129,21.161282],[79.149876,21.161985],[79.149492,21.162336],[79.148667,21.163132],[79.149698,21.164016],[79.150785,21.163856],[79.151769,21.163696],[79.151806,21.163707],[79.151995,21.164765],[79.152089,21.165214],[79.152183,21.165824],[79.152429,21.167208],[79.1524,21.168961],[79.152445,21.170351],[79.15237,21.170787],[79.150672,21.170019],[79.149972,21.169766],[79.149638,21.169662],[79.147971,21.169268],[79.146724,21.169076],[79.138385,21.168062],[79.137192,21.167932],[79.135503,21.167784],[79.135524,21.167294],[79.135549,21.166771],[79.134456,21.16573],[79.134277,21.16544],[79.133135,21.163212],[79.132971,21.163176],[79.131931,21.161149],[79.13137,21.160018],[79.130988,21.159584],[79.129806,21.158407],[79.128368,21.157718],[79.127881,21.157656],[79.126759,21.157539],[79.126769,21.157148],[79.132471,21.156905],[79.134575,21.156408],[79.135278,21.156038],[79.136516,21.155425],[79.138593,21.154112],[79.147091,21.148714],[79.145912,21.148004],[79.145879,21.146558],[79.145875,21.146422],[79.14614,21.146445],[79.146643,21.146256],[79.147111,21.146245],[79.147659,21.14628],[79.148051,21.146706],[79.148334,21.147112],[79.148684,21.147297],[79.149094,21.147266],[79.149331,21.147432],[79.149214,21.147511],[79.149686,21.148098],[79.150029,21.148303],[79.151144,21.148727],[79.152022,21.149001],[79.152555,21.149085],[79.153953,21.148747],[79.154281,21.148739],[79.154594,21.149064],[79.154643,21.149267],[79.154788,21.149352],[79.155359,21.150079],[79.155097,21.150146],[79.155302,21.150729],[79.155127,21.152103],[79.155365,21.152651],[79.155748,21.153324],[79.155756,21.153778],[79.155466,21.154128],[79.155454,21.154433],[79.155596,21.154655],[79.155821,21.154702]]]},"properties":{"name":"Prabhag No. 24\n","description":"Zone No 8. Lakadganj","styleUrl":"#poly-000000-1200-77","fill-opacity":0.30196078431372547,"fill":"#000000","stroke-opacity":1,"stroke":"#000000","stroke-width":1.2}},
{"type":"Feature","geometry":{"type":"Polygon","coordinates":[[[79.165737,21.137321],[79.16598,21.13754],[79.166474,21.138352],[79.167152,21.139312],[79.167963,21.140649],[79.168208,21.140978],[79.169144,21.14203],[79.169731,21.142071],[79.170116,21.143009],[79.171237,21.14291],[79.171523,21.145085],[79.170938,21.145244],[79.170977,21.145469],[79.171458,21.149282],[79.171781,21.149256],[79.171794,21.149646],[79.172046,21.14973],[79.172298,21.149739],[79.172301,21.149818],[79.173628,21.150268],[79.17374,21.150423],[79.174629,21.150402],[79.17647,21.152039],[79.177594,21.154034],[79.177931,21.155352],[79.178535,21.158194],[79.17846,21.159451],[79.178639,21.161464],[79.178653,21.163644],[79.178798,21.165758],[79.17746,21.165837],[79.176899,21.16588],[79.176115,21.165474],[79.175148,21.164822],[79.17488,21.164197],[79.174714,21.1636],[79.174827,21.163062],[79.17468,21.162784],[79.173901,21.162602],[79.172932,21.1629],[79.171794,21.162099],[79.171412,21.161967],[79.171189,21.161993],[79.170953,21.162258],[79.170548,21.162365],[79.16937,21.162049],[79.168786,21.16259],[79.168503,21.162661],[79.168281,21.16258],[79.167733,21.162017],[79.167402,21.161841],[79.167035,21.161768],[79.166673,21.161619],[79.165863,21.160738],[79.165148,21.16021],[79.165082,21.159957],[79.165109,21.159454],[79.1651,21.159067],[79.164949,21.158815],[79.164043,21.1585],[79.163394,21.158023],[79.162584,21.157956],[79.161761,21.15741],[79.161377,21.157262],[79.160872,21.157114],[79.160367,21.157098],[79.159953,21.156983],[79.15982,21.156851],[79.159757,21.156197],[79.159724,21.156086],[79.159563,21.156037],[79.159319,21.156054],[79.158695,21.156344],[79.158428,21.156299],[79.157982,21.1559],[79.157917,21.155561],[79.157996,21.155163],[79.158151,21.154622],[79.158231,21.154415],[79.158194,21.154177],[79.157842,21.154124],[79.157537,21.154155],[79.156984,21.15432],[79.156493,21.154659],[79.156102,21.154744],[79.155821,21.154702],[79.155596,21.154655],[79.155454,21.154433],[79.155466,21.154128],[79.155756,21.153778],[79.155748,21.153324],[79.155365,21.152651],[79.155127,21.152103],[79.155302,21.150729],[79.155097,21.150146],[79.155359,21.150079],[79.154788,21.149352],[79.154643,21.149267],[79.154594,21.149064],[79.154281,21.148739],[79.153953,21.148747],[79.152555,21.149085],[79.152022,21.149001],[79.151144,21.148727],[79.150029,21.148303],[79.149686,21.148098],[79.149324,21.147648],[79.151039,21.146542],[79.150927,21.14583],[79.150943,21.145686],[79.150696,21.145622],[79.150413,21.145293],[79.150439,21.144744],[79.150714,21.144664],[79.151062,21.144494],[79.15185,21.144305],[79.152674,21.145482],[79.153734,21.144875],[79.153675,21.144752],[79.160289,21.140688],[79.165737,21.137321]]]},"properties":{"name":"Prabhag No. 25","description":"Zone No 8. Lakadganj","styleUrl":"#poly-000000-1200-77","fill-opacity":0.30196078431372547,"fill":"#000000","stroke-opacity":1,"stroke":"#000000","stroke-width":1.2}},
{"type":"Feature","geometry":{"type":"Polygon","coordinates":[[[79.103739,21.215132],[79.10374,21.215307],[79.1027,21.215617],[79.10295,21.21713],[79.102871,21.217247],[79.102492,21.217539],[79.102492,21.218532],[79.10251,21.219448],[79.102492,21.219497],[79.099575,21.220214],[79.098304,21.220546],[79.100196,21.223637],[79.100778,21.224902],[79.101051,21.225898],[79.100545,21.226747],[79.098027,21.227497],[79.097833,21.227857],[79.096958,21.228448],[79.096254,21.22879],[79.095633,21.22911],[79.09484,21.228264],[79.094438,21.228438],[79.094492,21.229702],[79.091983,21.230213],[79.089982,21.230395],[79.089296,21.230357],[79.087017,21.230702],[79.086859,21.229814],[79.086597,21.227701],[79.08593,21.226354],[79.085812,21.225753],[79.085566,21.224648],[79.085582,21.223753],[79.085319,21.22353],[79.084539,21.222611],[79.083735,21.221789],[79.083768,21.22143],[79.083294,21.220333],[79.08307,21.218867],[79.081846,21.217874],[79.081849,21.217517],[79.082163,21.217087],[79.08218,21.216735],[79.081471,21.216562],[79.081307,21.216255],[79.081687,21.214967],[79.082052,21.214783],[79.083206,21.215829],[79.083434,21.215835],[79.083757,21.213609],[79.08301,21.213068],[79.080718,21.212867],[79.079797,21.210074],[79.079511,21.210095],[79.079007,21.208672],[79.0777,21.208914],[79.077422,21.208306],[79.077345,21.206307],[79.077488,21.203533],[79.078055,21.195883],[79.079911,21.193568],[79.081686,21.191326],[79.083537,21.187978],[79.083555,21.187943],[79.084088,21.183323],[79.084166,21.183239],[79.08431,21.181565],[79.084882,21.175513],[79.084885,21.175484],[79.086123,21.176022],[79.091106,21.176965],[79.09116,21.177141],[79.092095,21.177405],[79.093075,21.177859],[79.09382,21.178128],[79.09477,21.178529],[79.094591,21.178958],[79.094464,21.179361],[79.094201,21.180088],[79.093812,21.18195],[79.093509,21.182847],[79.093312,21.18351],[79.097206,21.184061],[79.100799,21.184639],[79.100803,21.184702],[79.100444,21.188645],[79.100228,21.191785],[79.100124,21.191801],[79.098501,21.191833],[79.098452,21.192578],[79.09842,21.193294],[79.099466,21.193422],[79.099412,21.194711],[79.099096,21.19508],[79.098992,21.195549],[79.098714,21.195914],[79.098774,21.196764],[79.099038,21.197466],[79.101304,21.198963],[79.102219,21.199359],[79.102518,21.199462],[79.103098,21.199346],[79.103113,21.199761],[79.102694,21.200313],[79.102701,21.200387],[79.103025,21.201053],[79.103354,21.201697],[79.103366,21.202342],[79.10349,21.204145],[79.103681,21.205041],[79.103657,21.209682],[79.10368,21.210778],[79.103673,21.21161],[79.103699,21.214864],[79.103739,21.215132]]]},"properties":{"name":"Prabhag No. 1","description":"Zone No.10 Mangalwari","styleUrl":"#poly-000000-1200-77","fill-opacity":0.30196078431372547,"fill":"#000000","stroke-opacity":1,"stroke":"#000000","stroke-width":1.2}},
{"type":"Feature","geometry":{"type":"Polygon","coordinates":[[[79.090199,21.149037],[79.090707,21.1534],[79.090719,21.153782],[79.090742,21.158252],[79.091757,21.159298],[79.091019,21.160307],[79.090952,21.161129],[79.091047,21.16319],[79.091612,21.163494],[79.093166,21.164002],[79.093057,21.165976],[79.093574,21.166063],[79.094917,21.169456],[79.09464,21.169908],[79.096733,21.170693],[79.09795,21.171811],[79.09965,21.173039],[79.098034,21.173883],[79.097476,21.174135],[79.096841,21.174326],[79.095301,21.173878],[79.094851,21.175261],[79.093919,21.176725],[79.09452,21.177039],[79.09382,21.178128],[79.093075,21.177859],[79.092095,21.177405],[79.09116,21.177141],[79.091106,21.176965],[79.086123,21.176022],[79.084885,21.175484],[79.084885,21.175481],[79.085217,21.172055],[79.083585,21.173017],[79.083556,21.172711],[79.083429,21.172365],[79.083239,21.172017],[79.080814,21.169461],[79.080226,21.169242],[79.079642,21.169099],[79.079401,21.169104],[79.078984,21.167732],[79.078624,21.167369],[79.079559,21.16526],[79.079653,21.162984],[79.07958,21.160708],[79.079733,21.160148],[79.07956,21.159096],[79.079738,21.157255],[79.080425,21.156342],[79.081721,21.155637],[79.08144,21.154286],[79.081016,21.152849],[79.080797,21.152459],[79.080776,21.152425],[79.080844,21.151644],[79.080813,21.150142],[79.080622,21.148205],[79.081039,21.147399],[79.081397,21.14744],[79.08275,21.147197],[79.083342,21.14708],[79.084655,21.146754],[79.088292,21.145796],[79.088497,21.145625],[79.088423,21.145107],[79.088597,21.145093],[79.089647,21.145],[79.090199,21.149037]]]},"properties":{"name":"Prabhag No. 09","description":"Zone No.10 Mangalwari","styleUrl":"#poly-000000-1200-77","fill-opacity":0.30196078431372547,"fill":"#000000","stroke-opacity":1,"stroke":"#000000","stroke-width":1.2}},
{"type":"Feature","geometry":{"type":"Polygon","coordinates":[[[79.078624,21.167369],[79.078984,21.167732],[79.079401,21.169104],[79.079642,21.169099],[79.080226,21.169242],[79.080814,21.169461],[79.083239,21.172017],[79.083429,21.172365],[79.083556,21.172711],[79.083585,21.173017],[79.085217,21.172055],[79.084885,21.175481],[79.084882,21.175513],[79.08431,21.181565],[79.084166,21.183239],[79.084088,21.183323],[79.083555,21.187943],[79.083537,21.187978],[79.080918,21.187993],[79.080229,21.187955],[79.079083,21.187908],[79.079121,21.187701],[79.078912,21.187654],[79.078129,21.187533],[79.077595,21.187433],[79.076562,21.187259],[79.07502,21.187059],[79.074849,21.186822],[79.07453,21.186743],[79.074154,21.186746],[79.073746,21.186654],[79.07365,21.186496],[79.073565,21.186794],[79.069804,21.186475],[79.069548,21.184417],[79.069507,21.182968],[79.068416,21.182678],[79.059883,21.180514],[79.058351,21.180138],[79.056996,21.179779],[79.05698,21.179712],[79.055782,21.179388],[79.054305,21.178977],[79.054036,21.179455],[79.052453,21.182345],[79.051413,21.183865],[79.051307,21.183671],[79.050827,21.183305],[79.049838,21.182292],[79.048887,21.182005],[79.048311,21.181669],[79.047922,21.181024],[79.047252,21.180718],[79.046727,21.180329],[79.045993,21.180262],[79.045719,21.180024],[79.0452,21.17972],[79.044999,21.179417],[79.044532,21.178996],[79.044627,21.178953],[79.047211,21.177813],[79.047577,21.17766],[79.049552,21.176781],[79.049963,21.17657],[79.051771,21.175938],[79.053964,21.175126],[79.057614,21.174131],[79.062192,21.172899],[79.065577,21.171156],[79.067724,21.171018],[79.070133,21.170871],[79.072364,21.170943],[79.073806,21.170758],[79.074583,21.170596],[79.076654,21.169861],[79.077186,21.169421],[79.078461,21.167578],[79.078624,21.167369]]]},"properties":{"name":"Prabhag No. 10","description":"Zone No.10 Mangalwari","styleUrl":"#poly-000000-1200-77","fill-opacity":0.30196078431372547,"fill":"#000000","stroke-opacity":1,"stroke":"#000000","stroke-width":1.2}},
{"type":"Feature","geometry":{"type":"Polygon","coordinates":[[[79.044532,21.178996],[79.044999,21.179417],[79.0452,21.17972],[79.045719,21.180024],[79.045993,21.180262],[79.046727,21.180329],[79.047252,21.180718],[79.047922,21.181024],[79.048311,21.181669],[79.048887,21.182005],[79.049838,21.182292],[79.050827,21.183305],[79.051307,21.183671],[79.051413,21.183865],[79.052453,21.182345],[79.054036,21.179455],[79.054305,21.178977],[79.055782,21.179388],[79.05698,21.179712],[79.056996,21.179779],[79.058351,21.180138],[79.059883,21.180514],[79.068416,21.182678],[79.069507,21.182968],[79.069548,21.184417],[79.069804,21.186475],[79.073565,21.186794],[79.07365,21.186496],[79.073746,21.186654],[79.074154,21.186746],[79.07453,21.186743],[79.074849,21.186822],[79.07502,21.187059],[79.076562,21.187259],[79.077595,21.187433],[79.078129,21.187533],[79.078912,21.187654],[79.079121,21.187701],[79.079083,21.187908],[79.080229,21.187955],[79.080918,21.187993],[79.083537,21.187978],[79.081686,21.191326],[79.079911,21.193568],[79.078055,21.195883],[79.077488,21.203533],[79.077345,21.206307],[79.077422,21.208306],[79.076583,21.208575],[79.075927,21.208201],[79.071405,21.208591],[79.070436,21.208392],[79.069698,21.208404],[79.069423,21.208322],[79.069295,21.208065],[79.067646,21.20651],[79.066383,21.206475],[79.066124,21.20635],[79.0653,21.206144],[79.065197,21.206909],[79.064565,21.207023],[79.06453,21.20728],[79.064438,21.2073],[79.063534,21.2072],[79.060768,21.206979],[79.055122,21.20809],[79.054743,21.20842],[79.054888,21.208814],[79.054646,21.210662],[79.054709,21.210831],[79.05475,21.211209],[79.054079,21.211449],[79.054266,21.212131],[79.054584,21.212988],[79.05482,21.213327],[79.054694,21.213747],[79.054163,21.213908],[79.045001,21.216275],[79.042611,21.212195],[79.042567,21.212125],[79.039794,21.211306],[79.035946,21.20813],[79.035872,21.202289],[79.034466,21.200058],[79.03802,21.196679],[79.035197,21.193854],[79.037252,21.189134],[79.033981,21.183403],[79.039725,21.181145],[79.041123,21.18052],[79.044532,21.178996]]]},"properties":{"name":"Prabhag No. 11","description":"Zone No.10 Mangalwari","styleUrl":"#poly-000000-1200-77","fill-opacity":0.30196078431372547,"fill":"#000000","stroke-opacity":1,"stroke":"#000000","stroke-width":1.2}},
{"type":"Feature","geometry":{"type":"Polygon","coordinates":[[[79.053964,21.175126],[79.051771,21.175938],[79.049963,21.17657],[79.049552,21.176781],[79.047577,21.17766],[79.047211,21.177813],[79.044627,21.178953],[79.041123,21.18052],[79.039725,21.181145],[79.033981,21.183403],[79.033321,21.182248],[79.032798,21.181894],[79.031488,21.181877],[79.030318,21.182202],[79.027973,21.182619],[79.026405,21.182616],[79.026039,21.18182],[79.025856,21.180704],[79.025505,21.180382],[79.024004,21.180985],[79.022568,21.180152],[79.021351,21.178744],[79.020636,21.178452],[79.019746,21.179086],[79.016808,21.182956],[79.015395,21.183594],[79.014616,21.182753],[79.014388,21.181437],[79.013881,21.180604],[79.012932,21.180309],[79.011605,21.181468],[79.010246,21.183114],[79.008665,21.183536],[79.006868,21.182706],[79.006199,21.182141],[79.004537,21.182485],[79.002198,21.180748],[79.000318,21.179664],[78.997317,21.177352],[78.99553,21.173336],[78.995254,21.170695],[78.994221,21.166796],[78.994064,21.166544],[78.993795,21.166444],[78.993563,21.165958],[78.993626,21.165594],[78.993886,21.165403],[78.993791,21.165122],[78.993815,21.163457],[78.996167,21.162024],[78.996414,21.16165],[78.996529,21.16168],[78.997043,21.161419],[78.997787,21.160867],[78.99849,21.16016],[78.999184,21.159833],[78.999697,21.159474],[79.000213,21.159307],[79.000669,21.159218],[79.000784,21.159033],[79.00208,21.158615],[79.002122,21.15879],[79.002286,21.158802],[79.002335,21.158964],[79.002646,21.158869],[79.002845,21.158851],[79.003435,21.158688],[79.004855,21.157897],[79.007027,21.157184],[79.007238,21.156718],[79.007429,21.156681],[79.008185,21.15702],[79.008352,21.157095],[79.010917,21.158424],[79.01229,21.159091],[79.01329,21.159695],[79.018883,21.165808],[79.01963,21.166604],[79.021256,21.167873],[79.021497,21.167591],[79.021814,21.167568],[79.021971,21.167461],[79.022169,21.167128],[79.023011,21.166784],[79.023754,21.166629],[79.024659,21.16633],[79.025701,21.166377],[79.027165,21.166762],[79.02817,21.166461],[79.028301,21.166718],[79.028326,21.166947],[79.028225,21.167242],[79.028314,21.167495],[79.028633,21.167817],[79.029024,21.168148],[79.029318,21.168252],[79.029516,21.168418],[79.02981,21.168807],[79.029956,21.16919],[79.030364,21.169415],[79.031028,21.16906],[79.031269,21.169114],[79.031723,21.16963],[79.031856,21.169705],[79.032076,21.169627],[79.032206,21.169486],[79.032452,21.169459],[79.033206,21.169916],[79.033693,21.170669],[79.034566,21.171099],[79.034707,21.171473],[79.035558,21.171243],[79.036029,21.171392],[79.036159,21.17098],[79.036219,21.169652],[79.036605,21.169668],[79.036559,21.169162],[79.036182,21.16821],[79.039695,21.165541],[79.040403,21.164837],[79.041894,21.164451],[79.043388,21.163814],[79.042755,21.166173],[79.042615,21.166449],[79.042938,21.166609],[79.044375,21.166769],[79.046661,21.166697],[79.049822,21.166547],[79.049824,21.166592],[79.050613,21.166663],[79.050902,21.166793],[79.051044,21.166606],[79.051203,21.165338],[79.052377,21.165493],[79.052548,21.165591],[79.053838,21.166986],[79.053236,21.167429],[79.053066,21.167768],[79.053077,21.167943],[79.05365,21.16864],[79.053505,21.170287],[79.053523,21.171259],[79.053666,21.171717],[79.053997,21.17228],[79.054047,21.172611],[79.053946,21.173013],[79.053788,21.173201],[79.053737,21.173576],[79.054122,21.17376],[79.054119,21.17437],[79.054144,21.174552],[79.053916,21.17464],[79.05391,21.174921],[79.053964,21.175126]]]},"properties":{"name":"Prabhag No. 12","description":"Zone No 2. Dharmpeth","styleUrl":"#poly-000000-1200-77","fill-opacity":0.30196078431372547,"fill":"#000000","stroke-opacity":1,"stroke":"#000000","stroke-width":1.2}},
{"type":"Feature","geometry":{"type":"Polygon","coordinates":[[[79.057403,21.128751],[79.056291,21.131564],[79.055617,21.133236],[79.054615,21.135766],[79.053703,21.137989],[79.055471,21.140377],[79.05578,21.140983],[79.056455,21.142969],[79.056464,21.143773],[79.055721,21.143879],[79.050706,21.144661],[79.050755,21.144796],[79.050879,21.146378],[79.051554,21.147013],[79.051801,21.147961],[79.047068,21.148534],[79.044671,21.148762],[79.044675,21.148823],[79.044904,21.149492],[79.044953,21.150425],[79.045951,21.156366],[79.045043,21.156321],[79.044581,21.156494],[79.044319,21.157012],[79.044266,21.157913],[79.043489,21.15824],[79.043084,21.158591],[79.042886,21.159188],[79.043234,21.160086],[79.043107,21.160382],[79.040862,21.16149],[79.0429,21.162204],[79.043388,21.163814],[79.041894,21.164451],[79.040403,21.164837],[79.039695,21.165541],[79.036182,21.16821],[79.036559,21.169162],[79.036605,21.169668],[79.036219,21.169652],[79.036159,21.17098],[79.036029,21.171392],[79.035558,21.171243],[79.034707,21.171473],[79.034566,21.171099],[79.033693,21.170669],[79.033206,21.169916],[79.032452,21.169459],[79.032206,21.169486],[79.032076,21.169627],[79.031856,21.169705],[79.031723,21.16963],[79.031269,21.169114],[79.031028,21.16906],[79.030364,21.169415],[79.029956,21.16919],[79.02981,21.168807],[79.029516,21.168418],[79.029318,21.168252],[79.029024,21.168148],[79.028633,21.167817],[79.028314,21.167495],[79.028225,21.167242],[79.028326,21.166947],[79.028301,21.166718],[79.02817,21.166461],[79.027165,21.166762],[79.025701,21.166377],[79.024659,21.16633],[79.023754,21.166629],[79.023011,21.166784],[79.022169,21.167128],[79.021971,21.167461],[79.021814,21.167568],[79.021497,21.167591],[79.021256,21.167873],[79.01963,21.166604],[79.018883,21.165808],[79.01329,21.159695],[79.01229,21.159091],[79.010917,21.158424],[79.008352,21.157095],[79.008185,21.15702],[79.008251,21.156718],[79.008445,21.156031],[79.008973,21.15593],[79.00907,21.155698],[79.009193,21.155102],[79.009509,21.154898],[79.009972,21.15496],[79.010691,21.155006],[79.010624,21.153849],[79.010514,21.153617],[79.010734,21.152076],[79.011136,21.151049],[79.011488,21.150051],[79.010811,21.149017],[79.010046,21.147954],[79.009662,21.147292],[79.009969,21.146851],[79.011513,21.14584],[79.010399,21.1442],[79.006574,21.138798],[79.004809,21.136382],[79.004794,21.136283],[79.006499,21.132556],[79.006963,21.131979],[79.007229,21.131615],[79.007729,21.130383],[79.008202,21.129556],[79.010474,21.125533],[79.010911,21.124823],[79.012368,21.12227],[79.01238,21.122249],[79.01481,21.121823],[79.014941,21.120839],[79.018548,21.120021],[79.020583,21.120955],[79.030399,21.122238],[79.033901,21.123191],[79.034408,21.123905],[79.034433,21.123914],[79.036516,21.123898],[79.037464,21.124004],[79.038532,21.124285],[79.039916,21.124902],[79.041281,21.124825],[79.04252,21.124457],[79.043106,21.124087],[79.043224,21.124133],[79.043406,21.124832],[79.044474,21.124754],[79.04449,21.12474],[79.045324,21.123384],[79.047028,21.122315],[79.048203,21.121959],[79.049311,21.121662],[79.053712,21.121251],[79.054364,21.121201],[79.055841,21.12114],[79.055993,21.121184],[79.058792,21.124751],[79.058923,21.12493],[79.057403,21.128751]]]},"properties":{"name":"Prabhag No. 13\n","description":"Zone No 2. Dharmpeth","styleUrl":"#poly-000000-1200-77","fill-opacity":0.30196078431372547,"fill":"#000000","stroke-opacity":1,"stroke":"#000000","stroke-width":1.2}},
{"type":"Feature","geometry":{"type":"Polygon","coordinates":[[[79.056464,21.143773],[79.056475,21.144732],[79.056487,21.145251],[79.056362,21.146087],[79.057165,21.145358],[79.058213,21.144771],[79.059086,21.144584],[79.060441,21.144662],[79.06133,21.144555],[79.061905,21.146795],[79.062181,21.14677],[79.063692,21.146583],[79.067554,21.146267],[79.067898,21.149463],[79.07096,21.148426],[79.072213,21.148241],[79.074503,21.147958],[79.075529,21.147947],[79.076191,21.148102],[79.077242,21.148558],[79.077394,21.149309],[79.076519,21.150279],[79.07678,21.151074],[79.077521,21.15123],[79.077995,21.151409],[79.07956,21.150379],[79.080058,21.150944],[79.080774,21.152421],[79.080797,21.152459],[79.081016,21.152849],[79.08144,21.154286],[79.081721,21.155637],[79.080425,21.156342],[79.079738,21.157255],[79.07956,21.159096],[79.079733,21.160148],[79.07958,21.160708],[79.079653,21.162984],[79.079559,21.16526],[79.078624,21.167369],[79.078461,21.167578],[79.077186,21.169421],[79.076654,21.169861],[79.074583,21.170596],[79.073806,21.170758],[79.072364,21.170943],[79.070133,21.170871],[79.067724,21.171018],[79.065577,21.171156],[79.062192,21.172899],[79.057614,21.174131],[79.053964,21.175126],[79.05391,21.174921],[79.053916,21.17464],[79.054144,21.174552],[79.054119,21.17437],[79.054122,21.17376],[79.053737,21.173576],[79.053788,21.173201],[79.053946,21.173013],[79.054047,21.172611],[79.053997,21.17228],[79.053666,21.171717],[79.053523,21.171259],[79.053505,21.170287],[79.05365,21.16864],[79.053077,21.167943],[79.053066,21.167768],[79.053236,21.167429],[79.053838,21.166986],[79.052548,21.165591],[79.052377,21.165493],[79.051203,21.165338],[79.051044,21.166606],[79.050902,21.166793],[79.050613,21.166663],[79.049824,21.166592],[79.049822,21.166547],[79.046661,21.166697],[79.044375,21.166769],[79.042938,21.166609],[79.042615,21.166449],[79.042755,21.166173],[79.043388,21.163814],[79.0429,21.162204],[79.040862,21.16149],[79.043107,21.160382],[79.043234,21.160086],[79.042886,21.159188],[79.043084,21.158591],[79.043489,21.15824],[79.044266,21.157913],[79.044319,21.157012],[79.044581,21.156494],[79.045043,21.156321],[79.045951,21.156366],[79.044953,21.150425],[79.044904,21.149492],[79.044675,21.148823],[79.044671,21.148762],[79.047068,21.148534],[79.051801,21.147961],[79.051554,21.147013],[79.050879,21.146378],[79.050755,21.144796],[79.050706,21.144661],[79.055721,21.143879],[79.056464,21.143773]]]},"properties":{"name":"Prabhag No. 14\n","description":"Zone No 2. Dharmpeth","styleUrl":"#poly-000000-1200-77","fill-opacity":0.30196078431372547,"fill":"#000000","stroke-opacity":1,"stroke":"#000000","stroke-width":1.2}},
{"type":"Feature","geometry":{"type":"Polygon","coordinates":[[[79.087346,21.137723],[79.087421,21.138146],[79.088597,21.145093],[79.088423,21.145107],[79.088497,21.145625],[79.088292,21.145796],[79.084655,21.146754],[79.083342,21.14708],[79.08275,21.147197],[79.081397,21.14744],[79.081039,21.147399],[79.080622,21.148205],[79.080813,21.150142],[79.080844,21.151644],[79.080776,21.152425],[79.080774,21.152421],[79.080058,21.150944],[79.07956,21.150379],[79.077995,21.151409],[79.077521,21.15123],[79.07678,21.151074],[79.076519,21.150279],[79.077394,21.149309],[79.077242,21.148558],[79.076191,21.148102],[79.075529,21.147947],[79.074503,21.147958],[79.072213,21.148241],[79.07096,21.148426],[79.067898,21.149463],[79.067554,21.146267],[79.063692,21.146583],[79.062181,21.14677],[79.061905,21.146795],[79.06133,21.144555],[79.060441,21.144662],[79.059086,21.144584],[79.058213,21.144771],[79.057165,21.145358],[79.056362,21.146087],[79.056487,21.145251],[79.056475,21.144732],[79.056455,21.142969],[79.05578,21.140983],[79.055471,21.140377],[79.053703,21.137989],[79.054615,21.135766],[79.055617,21.133236],[79.056291,21.131564],[79.057403,21.128751],[79.062742,21.130317],[79.070684,21.132696],[79.078337,21.135132],[79.078772,21.136557],[79.080478,21.136099],[79.08208,21.135548],[79.083362,21.135182],[79.08401,21.134962],[79.08449,21.134755],[79.085776,21.13736],[79.086998,21.137704],[79.087346,21.137723]]]},"properties":{"name":"Prabhag No. 15\n","description":"Zone No 2. Dharmpeth","styleUrl":"#poly-000000-1200-77","fill-opacity":0.30196078431372547,"fill":"#000000","stroke-opacity":1,"stroke":"#000000","stroke-width":1.2}},
{"type":"Feature","geometry":{"type":"Polygon","coordinates":[[[79.103233,21.136247],[79.103097,21.136802],[79.103066,21.137104],[79.103123,21.137116],[79.103081,21.138122],[79.102516,21.138214],[79.101697,21.138207],[79.101335,21.138292],[79.10107,21.138417],[79.100818,21.138701],[79.100747,21.139105],[79.100753,21.141294],[79.101117,21.143604],[79.101215,21.144291],[79.101508,21.145356],[79.101554,21.145718],[79.101743,21.147409],[79.098053,21.147931],[79.095405,21.148322],[79.090199,21.149037],[79.089647,21.145],[79.088597,21.145093],[79.087421,21.138146],[79.087346,21.137723],[79.087119,21.1367],[79.086678,21.135032],[79.086053,21.132784],[79.085356,21.131547],[79.084439,21.129979],[79.082632,21.126399],[79.08198,21.125125],[79.085619,21.123696],[79.085769,21.123661],[79.085993,21.123731],[79.089741,21.122223],[79.090828,21.121805],[79.092597,21.121089],[79.093334,21.120753],[79.093459,21.120616],[79.095464,21.120119],[79.095077,21.119491],[79.094066,21.118608],[79.094472,21.118351],[79.094182,21.118058],[79.094233,21.117771],[79.094621,21.117652],[79.09472,21.117807],[79.095147,21.117724],[79.095158,21.117539],[79.096489,21.117317],[79.097618,21.117091],[79.098987,21.116866],[79.099567,21.116779],[79.099587,21.117656],[79.099666,21.117738],[79.09969,21.118539],[79.099645,21.118572],[79.099706,21.119288],[79.099406,21.119376],[79.09953,21.119993],[79.099633,21.120299],[79.099678,21.12072],[79.100132,21.120623],[79.100212,21.120559],[79.100597,21.120501],[79.100814,21.121828],[79.100836,21.122137],[79.100198,21.122218],[79.099909,21.122383],[79.098331,21.122632],[79.098357,21.123316],[79.100328,21.123315],[79.101564,21.123335],[79.104943,21.123325],[79.104966,21.123843],[79.104957,21.124288],[79.103294,21.125348],[79.100588,21.127054],[79.100117,21.127778],[79.097719,21.131427],[79.09773,21.131444],[79.099582,21.133176],[79.099493,21.133245],[79.101243,21.134846],[79.101288,21.134838],[79.10264,21.136134],[79.102942,21.136296],[79.103233,21.136247]]]},"properties":{"name":"Prabhag No. 17","description":"Zone No 4. Dhantoli","styleUrl":"#poly-000000-1200-77","fill-opacity":0.30196078431372547,"fill":"#000000","stroke-opacity":1,"stroke":"#000000","stroke-width":1.2}},
{"type":"Feature","geometry":{"type":"Polygon","coordinates":[[[79.099567,21.116779],[79.098987,21.116866],[79.097618,21.117091],[79.096489,21.117317],[79.095158,21.117539],[79.095147,21.117724],[79.09472,21.117807],[79.094621,21.117652],[79.094233,21.117771],[79.094182,21.118058],[79.094472,21.118351],[79.094066,21.118608],[79.095077,21.119491],[79.095464,21.120119],[79.093459,21.120616],[79.093334,21.120753],[79.092597,21.121089],[79.090828,21.121805],[79.09022,21.120459],[79.089537,21.118884],[79.088651,21.116894],[79.088378,21.116302],[79.086692,21.112475],[79.089026,21.111615],[79.089779,21.111404],[79.088871,21.109222],[79.088799,21.109016],[79.088615,21.107766],[79.088265,21.106001],[79.094359,21.105423],[79.099558,21.10517],[79.101127,21.105213],[79.102458,21.105297],[79.102505,21.105459],[79.102956,21.106782],[79.103338,21.10823],[79.103546,21.109721],[79.10386,21.111783],[79.104057,21.113613],[79.102269,21.113821],[79.100877,21.113993],[79.101112,21.114926],[79.101019,21.115116],[79.100451,21.115425],[79.100798,21.116614],[79.100217,21.116725],[79.099905,21.116715],[79.099567,21.116779]]]},"properties":{"name":"Prabhag No. 33\n","description":"Zone No 4. Dhantoli","styleUrl":"#poly-000000-1200-77","fill-opacity":0.30196078431372547,"fill":"#000000","stroke-opacity":1,"stroke":"#000000","stroke-width":1.2}},
{"type":"Feature","geometry":{"type":"Polygon","coordinates":[[[79.088265,21.106001],[79.088615,21.107766],[79.088799,21.109016],[79.088871,21.109222],[79.089779,21.111404],[79.089026,21.111615],[79.086692,21.112475],[79.088378,21.116302],[79.088651,21.116894],[79.089537,21.118884],[79.09022,21.120459],[79.090828,21.121805],[79.089741,21.122223],[79.085993,21.123731],[79.085769,21.123661],[79.085619,21.123696],[79.08198,21.125125],[79.080071,21.120029],[79.078856,21.116832],[79.077545,21.113337],[79.076194,21.109696],[79.076051,21.109429],[79.07493,21.10697],[79.07419,21.105284],[79.07355,21.103944],[79.06836,21.092558],[79.064365,21.08393],[79.060529,21.075695],[79.060297,21.076344],[79.060207,21.077227],[79.060703,21.078384],[79.059083,21.078819],[79.055286,21.07945],[79.052933,21.08067],[79.051358,21.081426],[79.050001,21.080147],[79.049273,21.079482],[79.048508,21.078765],[79.048232,21.078605],[79.047421,21.07855],[79.046929,21.07824],[79.046645,21.078024],[79.046494,21.077866],[79.046064,21.07721],[79.046279,21.077054],[79.049288,21.075069],[79.04949,21.074957],[79.051583,21.07358],[79.050537,21.068179],[79.048303,21.066259],[79.047365,21.057901],[79.053453,21.056185],[79.054254,21.056119],[79.054348,21.056398],[79.055627,21.055997],[79.056326,21.055683],[79.057295,21.055107],[79.057414,21.053487],[79.058785,21.053362],[79.058861,21.053499],[79.059212,21.053469],[79.059509,21.053603],[79.060473,21.05363],[79.061327,21.053578],[79.063043,21.05363],[79.065071,21.053127],[79.065585,21.053154],[79.065661,21.053738],[79.065642,21.054526],[79.065555,21.054678],[79.065581,21.054853],[79.065806,21.05501],[79.065848,21.055513],[79.066536,21.056131],[79.067155,21.057743],[79.0703,21.062255],[79.070388,21.063443],[79.070897,21.065318],[79.07267,21.065833],[79.072821,21.066261],[79.072466,21.067725],[79.072195,21.069155],[79.071936,21.070743],[79.071291,21.072312],[79.070336,21.073572],[79.069652,21.074899],[79.069432,21.07584],[79.069567,21.078728],[79.070105,21.078599],[79.071251,21.080917],[79.071245,21.081406],[79.071909,21.081416],[79.072401,21.081798],[79.074296,21.081281],[79.07537,21.08128],[79.077087,21.084505],[79.078402,21.084654],[79.078879,21.085652],[79.079319,21.085992],[79.079385,21.086466],[79.079505,21.087064],[79.07979,21.087421],[79.08037,21.08781],[79.080813,21.088011],[79.081849,21.089885],[79.083456,21.09373],[79.084276,21.096024],[79.084306,21.096069],[79.085178,21.096691],[79.08561,21.097652],[79.086388,21.100195],[79.086748,21.101414],[79.087321,21.103568],[79.087581,21.103943],[79.088221,21.103816],[79.088306,21.104058],[79.088661,21.104018],[79.088708,21.104295],[79.087615,21.104499],[79.087913,21.105732],[79.088265,21.106001]]]},"properties":{"name":"Prabhag No. 35\n","description":"Zone No 4. Dhantoli","styleUrl":"#poly-000000-1200-77","fill-opacity":0.30196078431372547,"fill":"#000000","stroke-opacity":1,"stroke":"#000000","stroke-width":1.2}},
{"type":"Feature","geometry":{"type":"Polygon","coordinates":[[[79.067216,21.090087],[79.06836,21.092558],[79.07355,21.103944],[79.07419,21.105284],[79.07493,21.10697],[79.076051,21.109429],[79.076194,21.109696],[79.077545,21.113337],[79.078856,21.116832],[79.080071,21.120029],[79.08198,21.125125],[79.082632,21.126399],[79.084439,21.129979],[79.085356,21.131547],[79.086053,21.132784],[79.086678,21.135032],[79.087119,21.1367],[79.087346,21.137723],[79.086998,21.137704],[79.085776,21.13736],[79.08449,21.134755],[79.08401,21.134962],[79.083362,21.135182],[79.08208,21.135548],[79.080478,21.136099],[79.078772,21.136557],[79.078337,21.135132],[79.070684,21.132696],[79.062742,21.130317],[79.057403,21.128751],[79.058923,21.12493],[79.059618,21.12445],[79.06057,21.123511],[79.061323,21.123502],[79.06114,21.123052],[79.060892,21.121199],[79.061025,21.120567],[79.061728,21.120368],[79.062125,21.120285],[79.064523,21.119936],[79.065068,21.112261],[79.066377,21.111953],[79.066509,21.111933],[79.067878,21.111407],[79.070106,21.110749],[79.067166,21.099798],[79.065668,21.100027],[79.064202,21.100158],[79.063433,21.099629],[79.061736,21.098362],[79.061644,21.098238],[79.061972,21.09793],[79.062399,21.097834],[79.062612,21.097721],[79.063389,21.097414],[79.063694,21.097042],[79.063751,21.095743],[79.063832,21.094723],[79.064021,21.094431],[79.064206,21.093834],[79.064334,21.093611],[79.064463,21.093074],[79.064408,21.092927],[79.064491,21.092643],[79.064673,21.092392],[79.064913,21.092317],[79.065137,21.092322],[79.065508,21.092087],[79.065944,21.091473],[79.066075,21.091129],[79.06653,21.090537],[79.06682,21.090245],[79.067216,21.090087]]]},"properties":{"name":"Prabhag No. 16","description":"Zone No 1. Laxmi Nagar","styleUrl":"#poly-000000-1200-77","fill-opacity":0.30196078431372547,"fill":"#000000","stroke-opacity":1,"stroke":"#000000","stroke-width":1.2}},
{"type":"Feature","geometry":{"type":"Polygon","coordinates":[[[79.056813,21.107455],[79.056222,21.104847],[79.055833,21.104847],[79.052429,21.104921],[79.051251,21.105006],[79.049362,21.105269],[79.046592,21.106434],[79.04432,21.107339],[79.044941,21.10964],[79.045044,21.110083],[79.045316,21.111074],[79.045766,21.113195],[79.040864,21.11491],[79.042241,21.118771],[79.042613,21.120249],[79.042512,21.120533],[79.042408,21.120696],[79.041875,21.121339],[79.040617,21.12029],[79.039039,21.119984],[79.037495,21.119677],[79.036978,21.11947],[79.036139,21.119095],[79.035068,21.118296],[79.034467,21.117834],[79.034181,21.117634],[79.032835,21.116624],[79.035931,21.111954],[79.035478,21.111711],[79.035174,21.111736],[79.034652,21.111865],[79.034249,21.111831],[79.032957,21.112477],[79.031742,21.112855],[79.031509,21.112704],[79.029652,21.11138],[79.038943,21.099568],[79.036437,21.099619],[79.034479,21.099212],[79.034509,21.098282],[79.035024,21.097895],[79.034706,21.096808],[79.034704,21.096372],[79.034664,21.095866],[79.034446,21.094935],[79.034222,21.094828],[79.034149,21.094402],[79.035572,21.091853],[79.031,21.091372],[79.031134,21.090085],[79.035548,21.090403],[79.036472,21.089363],[79.036265,21.088724],[79.037185,21.088888],[79.037353,21.089503],[79.038195,21.089649],[79.038282,21.089405],[79.038648,21.088995],[79.038785,21.088882],[79.039644,21.087488],[79.041199,21.087563],[79.041647,21.087315],[79.04169,21.086909],[79.042478,21.086949],[79.042601,21.086645],[79.042872,21.086191],[79.04641,21.085152],[79.046912,21.086336],[79.046943,21.08634],[79.047821,21.08586],[79.04978,21.083436],[79.051358,21.081426],[79.052933,21.08067],[79.055286,21.07945],[79.059083,21.078819],[79.060703,21.078384],[79.060207,21.077227],[79.060297,21.076344],[79.060529,21.075695],[79.064365,21.08393],[79.067216,21.090087],[79.06682,21.090245],[79.06653,21.090537],[79.066075,21.091129],[79.065944,21.091473],[79.065508,21.092087],[79.065137,21.092322],[79.064913,21.092317],[79.064673,21.092392],[79.064491,21.092643],[79.064408,21.092927],[79.064463,21.093074],[79.064334,21.093611],[79.064206,21.093834],[79.064021,21.094431],[79.063832,21.094723],[79.063751,21.095743],[79.063694,21.097042],[79.063389,21.097414],[79.062612,21.097721],[79.062399,21.097834],[79.061972,21.09793],[79.061644,21.098238],[79.061736,21.098362],[79.063433,21.099629],[79.064202,21.100158],[79.065668,21.100027],[79.067166,21.099798],[79.070106,21.110749],[79.067878,21.111407],[79.066509,21.111933],[79.066377,21.111953],[79.065068,21.112261],[79.064458,21.112424],[79.062668,21.112944],[79.061197,21.113125],[79.059192,21.113574],[79.056757,21.113835],[79.056685,21.112992],[79.056765,21.111985],[79.056911,21.110669],[79.056813,21.107455]]]},"properties":{"name":"Prabhag No. 36\n","description":"Zone No 1. Laxmi Nagar","styleUrl":"#poly-000000-1200-77","fill-opacity":0.30196078431372547,"fill":"#000000","stroke-opacity":1,"stroke":"#000000","stroke-width":1.2}},
{"type":"Feature","geometry":{"type":"Polygon","coordinates":[[[79.04467,21.124448],[79.043626,21.12329],[79.0436,21.122799],[79.041875,21.121339],[79.042408,21.120696],[79.042512,21.120533],[79.042613,21.120249],[79.042241,21.118771],[79.040864,21.11491],[79.045766,21.113195],[79.045316,21.111074],[79.045044,21.110083],[79.044941,21.10964],[79.04432,21.107339],[79.046592,21.106434],[79.049362,21.105269],[79.051251,21.105006],[79.052429,21.104921],[79.055833,21.104847],[79.056222,21.104847],[79.056813,21.107455],[79.056911,21.110669],[79.056765,21.111985],[79.056685,21.112992],[79.056757,21.113835],[79.059192,21.113574],[79.061197,21.113125],[79.062668,21.112944],[79.064458,21.112424],[79.065068,21.112261],[79.064523,21.119936],[79.062125,21.120285],[79.061728,21.120368],[79.061025,21.120567],[79.060892,21.121199],[79.06114,21.123052],[79.061323,21.123502],[79.06057,21.123511],[79.059618,21.12445],[79.058923,21.12493],[79.058792,21.124751],[79.055993,21.121184],[79.055841,21.12114],[79.054364,21.121201],[79.053712,21.121251],[79.049311,21.121662],[79.048203,21.121959],[79.047028,21.122315],[79.045324,21.123384],[79.04467,21.124448]]]},"properties":{"name":"Prabhag No. 37\n","description":"Zone No 1. Laxmi Nagar","styleUrl":"#poly-000000-1200-77","fill-opacity":0.30196078431372547,"fill":"#000000","stroke-opacity":1,"stroke":"#000000","stroke-width":1.2}},
{"type":"Feature","geometry":{"type":"Polygon","coordinates":[[[79.051358,21.081426],[79.04978,21.083436],[79.047821,21.08586],[79.046943,21.08634],[79.046912,21.086336],[79.04641,21.085152],[79.042872,21.086191],[79.042601,21.086645],[79.042478,21.086949],[79.04169,21.086909],[79.041647,21.087315],[79.041199,21.087563],[79.039644,21.087488],[79.038785,21.088882],[79.038648,21.088995],[79.038282,21.089405],[79.038195,21.089649],[79.037353,21.089503],[79.037185,21.088888],[79.036265,21.088724],[79.036472,21.089363],[79.035548,21.090403],[79.031134,21.090085],[79.031,21.091372],[79.035572,21.091853],[79.034149,21.094402],[79.034222,21.094828],[79.034446,21.094935],[79.034664,21.095866],[79.034704,21.096372],[79.034706,21.096808],[79.035024,21.097895],[79.034509,21.098282],[79.034479,21.099212],[79.036437,21.099619],[79.038943,21.099568],[79.029652,21.11138],[79.031509,21.112704],[79.031742,21.112855],[79.032957,21.112477],[79.034249,21.111831],[79.034652,21.111865],[79.035174,21.111736],[79.035478,21.111711],[79.035931,21.111954],[79.032835,21.116624],[79.034181,21.117634],[79.034467,21.117834],[79.035068,21.118296],[79.036139,21.119095],[79.036978,21.11947],[79.037495,21.119677],[79.039039,21.119984],[79.040617,21.12029],[79.041875,21.121339],[79.0436,21.122799],[79.043626,21.12329],[79.04467,21.124448],[79.04449,21.12474],[79.044474,21.124754],[79.043406,21.124832],[79.043224,21.124133],[79.043106,21.124087],[79.04252,21.124457],[79.041281,21.124825],[79.039916,21.124902],[79.038532,21.124285],[79.037464,21.124004],[79.036516,21.123898],[79.034433,21.123914],[79.034408,21.123905],[79.033901,21.123191],[79.030399,21.122238],[79.020583,21.120955],[79.018548,21.120021],[79.014941,21.120839],[79.01481,21.121823],[79.01238,21.122249],[79.012368,21.12227],[79.01286,21.121417],[79.01488,21.118773],[79.017166,21.119019],[79.017103,21.117854],[79.017147,21.117667],[79.017261,21.117659],[79.017459,21.116313],[79.017594,21.114873],[79.017597,21.11416],[79.017493,21.11403],[79.016047,21.113487],[79.01643,21.112115],[79.012658,21.110775],[79.01354,21.108302],[79.013627,21.107813],[79.012683,21.10773],[79.01264,21.105925],[79.011714,21.102523],[79.01146,21.101573],[79.01094,21.101743],[79.009862,21.102004],[79.009743,21.10153],[79.008724,21.101263],[79.008591,21.101452],[79.008028,21.101396],[79.008023,21.101016],[79.008265,21.100547],[79.00826,21.099721],[79.008389,21.097099],[79.0085,21.096457],[79.008523,21.094625],[79.008342,21.093839],[79.009999,21.090902],[79.011228,21.089459],[79.01184,21.08909],[79.0129,21.087697],[79.013221,21.086304],[79.013811,21.083315],[79.014465,21.081989],[79.014251,21.079203],[79.013869,21.077027],[79.014036,21.076552],[79.015343,21.07584],[79.017135,21.073196],[79.020206,21.072857],[79.020798,21.073618],[79.024777,21.073579],[79.025067,21.074301],[79.026582,21.073946],[79.02737,21.075902],[79.031271,21.075324],[79.031164,21.076543],[79.03575,21.079874],[79.037307,21.078013],[79.04321,21.077862],[79.04439,21.077172],[79.046064,21.07721],[79.046494,21.077866],[79.046645,21.078024],[79.046929,21.07824],[79.047421,21.07855],[79.048232,21.078605],[79.048508,21.078765],[79.049273,21.079482],[79.050001,21.080147],[79.051358,21.081426]]]},"properties":{"name":"Prabhag No. 38\n","description":"Zone No 1. Laxmi Nagar","styleUrl":"#poly-000000-1200-77","fill-opacity":0.30196078431372547,"fill":"#000000","stroke-opacity":1,"stroke":"#000000","stroke-width":1.2}},
{"type":"Feature","geometry":{"type":"Polygon","coordinates":[[[79.137902,21.104065],[79.137418,21.104061],[79.136964,21.104316],[79.135851,21.104573],[79.134644,21.104784],[79.134642,21.104568],[79.134183,21.104552],[79.132882,21.104613],[79.131962,21.104621],[79.131593,21.104843],[79.130454,21.105793],[79.130296,21.106257],[79.129857,21.10704],[79.129167,21.107769],[79.128795,21.108325],[79.128579,21.108417],[79.128314,21.108723],[79.128203,21.109021],[79.127357,21.109105],[79.125974,21.109321],[79.125752,21.109389],[79.125556,21.10956],[79.123578,21.108641],[79.120605,21.107941],[79.120275,21.107858],[79.119673,21.107529],[79.118854,21.107094],[79.118468,21.107017],[79.11733,21.106972],[79.116738,21.106866],[79.116661,21.105418],[79.116609,21.104657],[79.116522,21.101304],[79.116809,21.097642],[79.117604,21.094453],[79.117689,21.093237],[79.117708,21.092621],[79.117913,21.09237],[79.118316,21.092028],[79.118681,21.091882],[79.118985,21.091628],[79.119049,21.091485],[79.118943,21.088816],[79.118906,21.088278],[79.118846,21.087891],[79.121315,21.0874],[79.121016,21.086476],[79.121903,21.085794],[79.122971,21.085312],[79.122833,21.084281],[79.122673,21.083585],[79.122754,21.082165],[79.123218,21.081564],[79.123085,21.080603],[79.122365,21.074635],[79.122269,21.074105],[79.122245,21.072782],[79.122805,21.070987],[79.122437,21.069816],[79.122243,21.069022],[79.122167,21.068058],[79.122077,21.067529],[79.122558,21.067101],[79.12457,21.067099],[79.128342,21.066996],[79.128096,21.068152],[79.129815,21.068264],[79.130906,21.068085],[79.132427,21.068177],[79.13603,21.068335],[79.138806,21.068324],[79.138866,21.069982],[79.139181,21.071718],[79.139297,21.073348],[79.139672,21.0761],[79.142807,21.076253],[79.146757,21.076208],[79.148796,21.077107],[79.148211,21.080753],[79.147699,21.083625],[79.148121,21.083812],[79.148232,21.086757],[79.148485,21.087579],[79.148033,21.088107],[79.147465,21.088449],[79.147322,21.089093],[79.147563,21.089538],[79.149335,21.089697],[79.149233,21.090415],[79.14924,21.090615],[79.149146,21.091028],[79.148813,21.091939],[79.148919,21.092665],[79.149291,21.093398],[79.147008,21.093971],[79.146842,21.09474],[79.146777,21.095524],[79.146617,21.095785],[79.146631,21.096571],[79.146372,21.096776],[79.146504,21.097654],[79.142857,21.098339],[79.137845,21.102655],[79.137871,21.103931],[79.137902,21.104065]]]},"properties":{"name":"Prabhag No. 29\n","description":"Zone No 3. Hanuman Nagar","styleUrl":"#poly-000000-1200-77","fill-opacity":0.30196078431372547,"fill":"#000000","stroke-opacity":1,"stroke":"#000000","stroke-width":1.2}},
{"type":"Feature","geometry":{"type":"Polygon","coordinates":[[[79.112611,21.123453],[79.112755,21.124107],[79.113025,21.125243],[79.113082,21.128425],[79.113106,21.131893],[79.11559,21.131969],[79.116424,21.130948],[79.116586,21.131047],[79.119481,21.130713],[79.119621,21.140317],[79.11962,21.140317],[79.117794,21.139885],[79.116322,21.139493],[79.113776,21.138903],[79.113105,21.138777],[79.112489,21.138632],[79.111708,21.1386],[79.110942,21.138691],[79.109512,21.138744],[79.108288,21.138853],[79.108462,21.136113],[79.108068,21.136163],[79.10799,21.135737],[79.107984,21.135025],[79.108041,21.134189],[79.107544,21.132805],[79.105937,21.134094],[79.105277,21.134394],[79.104017,21.13488],[79.103938,21.134934],[79.103504,21.135367],[79.103389,21.135646],[79.103233,21.136247],[79.102942,21.136296],[79.10264,21.136134],[79.101288,21.134838],[79.101243,21.134846],[79.099493,21.133245],[79.099582,21.133176],[79.09773,21.131444],[79.097719,21.131427],[79.100117,21.127778],[79.100588,21.127054],[79.103294,21.125348],[79.104957,21.124288],[79.104966,21.123843],[79.104943,21.123325],[79.104912,21.122365],[79.104857,21.121418],[79.108091,21.121542],[79.11133,21.121572],[79.111397,21.123435],[79.1126,21.123453],[79.112611,21.123453]]]},"properties":{"name":"Prabhag No. 31","description":"Zone No 3. Hanuman Nagar","styleUrl":"#poly-000000-1200-77","fill-opacity":0.30196078431372547,"fill":"#000000","stroke-opacity":1,"stroke":"#000000","stroke-width":1.2}},
{"type":"Feature","geometry":{"type":"Polygon","coordinates":[[[79.11133,21.121572],[79.108091,21.121542],[79.104857,21.121418],[79.104912,21.122365],[79.104943,21.123325],[79.101564,21.123335],[79.100328,21.123315],[79.098357,21.123316],[79.098331,21.122632],[79.099909,21.122383],[79.100198,21.122218],[79.100836,21.122137],[79.100814,21.121828],[79.100597,21.120501],[79.100212,21.120559],[79.100132,21.120623],[79.099678,21.12072],[79.099633,21.120299],[79.09953,21.119993],[79.099406,21.119376],[79.099706,21.119288],[79.099645,21.118572],[79.09969,21.118539],[79.099666,21.117738],[79.099587,21.117656],[79.099567,21.116779],[79.099905,21.116715],[79.100217,21.116725],[79.100798,21.116614],[79.100451,21.115425],[79.101019,21.115116],[79.101112,21.114926],[79.100877,21.113993],[79.102269,21.113821],[79.104057,21.113613],[79.10386,21.111783],[79.103546,21.109721],[79.103338,21.10823],[79.102956,21.106782],[79.102505,21.105459],[79.102458,21.105297],[79.103926,21.105404],[79.105791,21.105513],[79.106661,21.105543],[79.107669,21.105507],[79.108442,21.105491],[79.109893,21.10557],[79.111141,21.105719],[79.113015,21.106126],[79.114725,21.106353],[79.115291,21.106421],[79.116738,21.106866],[79.11733,21.106972],[79.118468,21.107017],[79.118854,21.107094],[79.119673,21.107529],[79.119397,21.108336],[79.118618,21.109099],[79.11735,21.11021],[79.115585,21.11177],[79.113567,21.113571],[79.114049,21.114035],[79.11289,21.115153],[79.112532,21.115333],[79.110743,21.115707],[79.111204,21.117727],[79.111257,21.119568],[79.11133,21.121572]]]},"properties":{"name":"Prabhag No. 32\n","description":"Zone No 3. Hanuman Nagar","styleUrl":"#poly-000000-1200-77","fill-opacity":0.30196078431372547,"fill":"#000000","stroke-opacity":1,"stroke":"#000000","stroke-width":1.2}},
{"type":"Feature","geometry":{"type":"Polygon","coordinates":[[[79.102458,21.105297],[79.101127,21.105213],[79.099558,21.10517],[79.094359,21.105423],[79.088265,21.106001],[79.087913,21.105732],[79.087615,21.104499],[79.088708,21.104295],[79.088661,21.104018],[79.088306,21.104058],[79.088221,21.103816],[79.087581,21.103943],[79.087321,21.103568],[79.086748,21.101414],[79.086388,21.100195],[79.08561,21.097652],[79.085178,21.096691],[79.084306,21.096069],[79.084276,21.096024],[79.08451,21.095477],[79.085051,21.095071],[79.085803,21.095069],[79.086507,21.094621],[79.087322,21.094743],[79.087961,21.094497],[79.088744,21.094253],[79.089227,21.093871],[79.089569,21.09352],[79.089912,21.093466],[79.090562,21.093218],[79.090951,21.093004],[79.091356,21.092829],[79.092487,21.092218],[79.09266,21.092159],[79.092741,21.092202],[79.09322,21.091869],[79.092735,21.091115],[79.092898,21.090995],[79.093318,21.090761],[79.093603,21.090471],[79.094188,21.089264],[79.094433,21.088992],[79.094879,21.088883],[79.095133,21.089208],[79.095368,21.089235],[79.095814,21.089098],[79.096102,21.088827],[79.096517,21.088719],[79.097277,21.089068],[79.09804,21.088556],[79.098753,21.088132],[79.099101,21.087476],[79.100102,21.087509],[79.100792,21.087101],[79.101406,21.087066],[79.102154,21.087369],[79.102502,21.087702],[79.102613,21.087992],[79.103058,21.088071],[79.103474,21.088239],[79.10372,21.088192],[79.104332,21.088167],[79.10454,21.088208],[79.105028,21.088246],[79.105264,21.088323],[79.10583,21.088133],[79.105994,21.088133],[79.106412,21.088882],[79.106688,21.089258],[79.107149,21.089822],[79.10775,21.089893],[79.108388,21.089186],[79.108318,21.088896],[79.108476,21.088702],[79.108717,21.088551],[79.109581,21.088679],[79.1098,21.088575],[79.110957,21.087661],[79.111568,21.087338],[79.112432,21.086656],[79.112503,21.086227],[79.112805,21.085875],[79.11367,21.085874],[79.115426,21.085386],[79.115771,21.085894],[79.115932,21.086025],[79.115966,21.086181],[79.116101,21.086379],[79.116306,21.086593],[79.116391,21.086967],[79.116587,21.087404],[79.116888,21.087774],[79.116952,21.088092],[79.117631,21.088274],[79.118246,21.088219],[79.118906,21.088278],[79.118943,21.088816],[79.119049,21.091485],[79.118985,21.091628],[79.118681,21.091882],[79.118316,21.092028],[79.117913,21.09237],[79.117708,21.092621],[79.117689,21.093237],[79.117604,21.094453],[79.116809,21.097642],[79.116522,21.101304],[79.116609,21.104657],[79.116661,21.105418],[79.116738,21.106866],[79.115291,21.106421],[79.114725,21.106353],[79.113015,21.106126],[79.111141,21.105719],[79.109893,21.10557],[79.108442,21.105491],[79.107669,21.105507],[79.106661,21.105543],[79.105791,21.105513],[79.103926,21.105404],[79.102458,21.105297]]]},"properties":{"name":"Prabhag No. 34","description":"Zone No 3. Hanuman Nagar","styleUrl":"#poly-000000-1200-77","fill-opacity":0.30196078431372547,"fill":"#000000","stroke-opacity":1,"stroke":"#000000","stroke-width":1.2}},
{"type":"Feature","geometry":{"type":"Polygon","coordinates":[[[79.125556,21.10956],[79.125752,21.109389],[79.125974,21.109321],[79.127357,21.109105],[79.128203,21.109021],[79.128314,21.108723],[79.128579,21.108417],[79.128795,21.108325],[79.129167,21.107769],[79.129857,21.10704],[79.130296,21.106257],[79.130454,21.105793],[79.131593,21.104843],[79.131962,21.104621],[79.132882,21.104613],[79.134183,21.104552],[79.134642,21.104568],[79.134644,21.104784],[79.135851,21.104573],[79.136964,21.104316],[79.137418,21.104061],[79.137902,21.104065],[79.137977,21.104395],[79.138422,21.106061],[79.140726,21.105803],[79.141329,21.10694],[79.142411,21.106254],[79.142758,21.106774],[79.142312,21.107096],[79.142206,21.107319],[79.142315,21.107674],[79.142289,21.108545],[79.142477,21.109764],[79.142217,21.110699],[79.142245,21.111275],[79.142479,21.112307],[79.142442,21.112522],[79.142289,21.112693],[79.142231,21.113314],[79.142105,21.113625],[79.142638,21.115166],[79.142935,21.11828],[79.142981,21.119124],[79.142714,21.119502],[79.142411,21.120329],[79.142421,21.121258],[79.142367,21.121635],[79.141992,21.121926],[79.142296,21.124427],[79.14189,21.124575],[79.141724,21.123816],[79.14095,21.123951],[79.139968,21.123988],[79.139603,21.12385],[79.137419,21.124629],[79.136025,21.125513],[79.135029,21.126211],[79.1338,21.127153],[79.132814,21.127716],[79.131952,21.128142],[79.129517,21.129321],[79.128751,21.129723],[79.128346,21.130023],[79.1273,21.130255],[79.126967,21.130427],[79.126543,21.130027],[79.125966,21.129509],[79.122363,21.126224],[79.122061,21.125236],[79.121985,21.12471],[79.121584,21.121775],[79.125025,21.118947],[79.126582,21.117736],[79.128093,21.116489],[79.129627,21.115276],[79.131173,21.114075],[79.128931,21.111198],[79.125556,21.10956]]]},"properties":{"name":"Prabhag No. 28\n","description":"Zone No 5. Nehru Nagar","styleUrl":"#poly-000000-1200-77","fill-opacity":0.30196078431372547,"fill":"#000000","stroke-opacity":1,"stroke":"#000000","stroke-width":1.2}},
{"type":"Feature","geometry":{"type":"Polygon","coordinates":[[[79.121584,21.121775],[79.118152,21.124414],[79.117204,21.123492],[79.1126,21.123453],[79.111397,21.123435],[79.11133,21.121572],[79.111257,21.119568],[79.111204,21.117727],[79.110743,21.115707],[79.112532,21.115333],[79.11289,21.115153],[79.114049,21.114035],[79.113567,21.113571],[79.115585,21.11177],[79.11735,21.11021],[79.118618,21.109099],[79.119397,21.108336],[79.119673,21.107529],[79.120275,21.107858],[79.120605,21.107941],[79.123578,21.108641],[79.125556,21.10956],[79.128931,21.111198],[79.131173,21.114075],[79.129627,21.115276],[79.128093,21.116489],[79.126582,21.117736],[79.125025,21.118947],[79.121584,21.121775]]]},"properties":{"name":"Prabhag No. 30\n","description":"Zone No 5. Nehru Nagar","styleUrl":"#poly-000000-1200-77","fill-opacity":0.30196078431372547,"fill":"#000000","stroke-opacity":1,"stroke":"#000000","stroke-width":1.2}},
{"type":"Feature","geometry":{"type":"Polygon","coordinates":[[[79.112611,21.123453],[79.117204,21.123492],[79.118152,21.124414],[79.121584,21.121775],[79.121985,21.12471],[79.122061,21.125236],[79.122363,21.126224],[79.125966,21.129509],[79.126543,21.130027],[79.126967,21.130427],[79.129165,21.132582],[79.130708,21.133914],[79.128508,21.135975],[79.128354,21.136266],[79.128416,21.138812],[79.128186,21.138813],[79.12795,21.138818],[79.128292,21.141872],[79.128309,21.142057],[79.124972,21.14145],[79.124818,21.14143],[79.123194,21.141224],[79.12159,21.140838],[79.119621,21.140317],[79.119481,21.130713],[79.116586,21.131047],[79.116424,21.130948],[79.11559,21.131969],[79.113106,21.131893],[79.113082,21.128425],[79.113025,21.125243],[79.112755,21.124107],[79.112611,21.123453]]]},"properties":{"name":"Prabhag No. 27\n","description":"Zone No 5. Nehru Nagar","styleUrl":"#poly-000000-1200-77","fill-opacity":0.30196078431372547,"fill":"#000000","stroke-opacity":1,"stroke":"#000000","stroke-width":1.2}},
{"type":"Feature","geometry":{"type":"Polygon","coordinates":[[[79.117794,21.139885],[79.11823,21.139989],[79.117791,21.141135],[79.117721,21.141806],[79.117414,21.142646],[79.116942,21.142519],[79.11647,21.142573],[79.115838,21.142777],[79.115538,21.142906],[79.113582,21.143096],[79.112202,21.143298],[79.112499,21.144174],[79.112435,21.144923],[79.112511,21.14533],[79.111892,21.145547],[79.112076,21.145984],[79.11087,21.146014],[79.110449,21.146248],[79.110023,21.146652],[79.109858,21.146735],[79.109517,21.146991],[79.109318,21.147207],[79.109187,21.147402],[79.109143,21.14755],[79.108684,21.147554],[79.106602,21.147322],[79.105178,21.147084],[79.103974,21.147008],[79.101743,21.147409],[79.101554,21.145718],[79.101508,21.145356],[79.101215,21.144291],[79.101117,21.143604],[79.100753,21.141294],[79.100747,21.139105],[79.100818,21.138701],[79.10107,21.138417],[79.101335,21.138292],[79.101697,21.138207],[79.102516,21.138214],[79.103081,21.138122],[79.103123,21.137116],[79.103066,21.137104],[79.103097,21.136802],[79.103233,21.136247],[79.103389,21.135646],[79.103504,21.135367],[79.103938,21.134934],[79.104017,21.13488],[79.105277,21.134394],[79.105937,21.134094],[79.107544,21.132805],[79.108041,21.134189],[79.107984,21.135025],[79.10799,21.135737],[79.108068,21.136163],[79.108462,21.136113],[79.108288,21.138853],[79.109512,21.138744],[79.110942,21.138691],[79.111708,21.1386],[79.112489,21.138632],[79.113105,21.138777],[79.113776,21.138903],[79.116322,21.139493],[79.117794,21.139885]]]},"properties":{"name":"Prabhag No. 18\n","description":"Zone No 6. Gandhibag","styleUrl":"#poly-000000-1200-77","fill-opacity":0.30196078431372547,"fill":"#000000","stroke-opacity":1,"stroke":"#000000","stroke-width":1.2}},
{"type":"Feature","geometry":{"type":"Polygon","coordinates":[[[79.117001,21.183911],[79.118411,21.18466],[79.120554,21.186629],[79.12209,21.187675],[79.122228,21.187803],[79.125117,21.189201],[79.126496,21.18989],[79.127295,21.191132],[79.127695,21.191634],[79.131094,21.191113],[79.131286,21.190861],[79.132564,21.190788],[79.131475,21.194038],[79.133639,21.195334],[79.134182,21.19591],[79.132328,21.196125],[79.131539,21.197896],[79.130767,21.198006],[79.130636,21.197559],[79.130367,21.197357],[79.12835,21.197601],[79.125922,21.198108],[79.124832,21.19907],[79.124666,21.199557],[79.123533,21.199968],[79.123317,21.200277],[79.122593,21.200647],[79.12143,21.200978],[79.12102,21.201309],[79.120967,21.201654],[79.121138,21.202977],[79.120639,21.20322],[79.120598,21.203278],[79.120728,21.205063],[79.120525,21.205243],[79.120906,21.208322],[79.117322,21.209621],[79.112464,21.211399],[79.112342,21.21232],[79.107385,21.21383],[79.103739,21.215132],[79.103699,21.214864],[79.103673,21.21161],[79.10368,21.210778],[79.103657,21.209682],[79.103681,21.205041],[79.10349,21.204145],[79.103366,21.202342],[79.103354,21.201697],[79.103025,21.201053],[79.102701,21.200387],[79.102694,21.200313],[79.103113,21.199761],[79.103098,21.199346],[79.102518,21.199462],[79.102219,21.199359],[79.101304,21.198963],[79.099038,21.197466],[79.098774,21.196764],[79.098714,21.195914],[79.098992,21.195549],[79.099096,21.19508],[79.099412,21.194711],[79.099466,21.193422],[79.09842,21.193294],[79.098452,21.192578],[79.098501,21.191833],[79.100124,21.191801],[79.100228,21.191785],[79.100444,21.188645],[79.100803,21.184702],[79.100799,21.184639],[79.097206,21.184061],[79.093312,21.18351],[79.093509,21.182847],[79.093812,21.18195],[79.094201,21.180088],[79.094464,21.179361],[79.094591,21.178958],[79.09477,21.178529],[79.095137,21.178008],[79.096054,21.178309],[79.097191,21.178218],[79.097877,21.178178],[79.098356,21.178189],[79.098662,21.179233],[79.09874,21.179855],[79.099171,21.180279],[79.101226,21.177465],[79.102576,21.178324],[79.104158,21.179245],[79.105855,21.176925],[79.112085,21.180883],[79.113248,21.181602],[79.117001,21.183911]]]},"properties":{"name":"Prabhag No. 2","description":"Zone No 9. AashiNagar","styleUrl":"#poly-000000-1200-77","fill-opacity":0.30196078431372547,"fill":"#000000","stroke-opacity":1,"stroke":"#000000","stroke-width":1.2}},
{"type":"Feature","geometry":{"type":"Polygon","coordinates":[[[79.108684,21.147554],[79.109143,21.14755],[79.109187,21.147402],[79.109318,21.147207],[79.109517,21.146991],[79.109858,21.146735],[79.110023,21.146652],[79.110449,21.146248],[79.11087,21.146014],[79.112076,21.145984],[79.111892,21.145547],[79.112511,21.14533],[79.112435,21.144923],[79.112499,21.144174],[79.112202,21.143298],[79.113582,21.143096],[79.115538,21.142906],[79.115838,21.142777],[79.11647,21.142573],[79.116942,21.142519],[79.117414,21.142646],[79.117721,21.141806],[79.117791,21.141135],[79.11823,21.139989],[79.11962,21.140317],[79.12159,21.140838],[79.123194,21.141224],[79.124818,21.14143],[79.124974,21.14145],[79.124967,21.142504],[79.124855,21.143204],[79.124717,21.146197],[79.124525,21.15002],[79.124427,21.153507],[79.122745,21.153837],[79.120313,21.154114],[79.117947,21.154181],[79.11713,21.15433],[79.115888,21.154238],[79.114893,21.154553],[79.113076,21.15454],[79.112997,21.154215],[79.112819,21.154239],[79.112708,21.154141],[79.112102,21.154301],[79.112206,21.154465],[79.110924,21.154673],[79.110687,21.153547],[79.110441,21.152609],[79.109349,21.149718],[79.109272,21.149683],[79.108931,21.14819],[79.108684,21.147554]]]},"properties":{"name":"Prabhag No. 22\n","description":"Zone No 6. Gandhibag","styleUrl":"#poly-000000-1200-77","fill-opacity":0.30196078431372547,"fill":"#000000","stroke-opacity":1,"stroke":"#000000","stroke-width":1.2}},
{"type":"Feature","geometry":{"type":"Polygon","coordinates":[[[79.110924,21.154673],[79.109577,21.154925],[79.108395,21.154945],[79.107099,21.154809],[79.106691,21.154714],[79.106723,21.154628],[79.106163,21.15456],[79.104048,21.154447],[79.104089,21.154936],[79.104326,21.156193],[79.10439,21.156753],[79.102979,21.156813],[79.101242,21.156791],[79.099929,21.156796],[79.099896,21.156383],[79.09971,21.15596],[79.099669,21.155453],[79.099764,21.155352],[79.0997,21.154415],[79.099591,21.154145],[79.099617,21.154077],[79.099594,21.153652],[79.099461,21.153592],[79.098909,21.153652],[79.098244,21.153556],[79.097978,21.153491],[79.097195,21.153444],[79.096444,21.153352],[79.095489,21.153404],[79.094246,21.153395],[79.090707,21.1534],[79.090199,21.149037],[79.095405,21.148322],[79.098053,21.147931],[79.101743,21.147409],[79.103974,21.147008],[79.105178,21.147084],[79.106602,21.147322],[79.108684,21.147554],[79.108931,21.14819],[79.109272,21.149683],[79.109349,21.149718],[79.110441,21.152609],[79.110687,21.153547],[79.110924,21.154673]]]},"properties":{"name":"Prabhag No. 19\n","description":"Zone No 6. Gandhibag","styleUrl":"#poly-000000-1200-77","fill-opacity":0.30196078431372547,"fill":"#000000","stroke-opacity":1,"stroke":"#000000","stroke-width":1.2}},
{"type":"Feature","geometry":{"type":"Polygon","coordinates":[[[79.10439,21.156753],[79.104353,21.15883],[79.104315,21.159551],[79.10289,21.160017],[79.100661,21.161281],[79.09983,21.161709],[79.100088,21.162325],[79.096317,21.162057],[79.09515,21.161673],[79.093944,21.16097],[79.092944,21.160419],[79.091547,21.159585],[79.091757,21.159298],[79.090742,21.158252],[79.090719,21.153782],[79.090707,21.1534],[79.094246,21.153395],[79.095489,21.153404],[79.096444,21.153352],[79.097195,21.153444],[79.097978,21.153491],[79.098244,21.153556],[79.098909,21.153652],[79.099461,21.153592],[79.099594,21.153652],[79.099617,21.154077],[79.099591,21.154145],[79.0997,21.154415],[79.099764,21.155352],[79.099669,21.155453],[79.09971,21.15596],[79.099896,21.156383],[79.099929,21.156796],[79.101242,21.156791],[79.102979,21.156813],[79.10439,21.156753]]]},"properties":{"name":"Prabhag No. 8\n","description":"Zone No 6. Gandhibag","styleUrl":"#poly-000000-1200-77","fill-opacity":0.30196078431372547,"fill":"#000000","stroke-opacity":1,"stroke":"#000000","stroke-width":1.2}},
{"type":"Feature","geometry":{"type":"Polygon","coordinates":[[[79.105855,21.176925],[79.104158,21.179245],[79.102576,21.178324],[79.101226,21.177465],[79.099171,21.180279],[79.09874,21.179855],[79.098662,21.179233],[79.098356,21.178189],[79.097877,21.178178],[79.097191,21.178218],[79.096054,21.178309],[79.095137,21.178008],[79.09477,21.178529],[79.09382,21.178128],[79.09452,21.177039],[79.093919,21.176725],[79.094851,21.175261],[79.095301,21.173878],[79.096841,21.174326],[79.097476,21.174135],[79.098034,21.173883],[79.09965,21.173039],[79.09795,21.171811],[79.096733,21.170693],[79.09464,21.169908],[79.094917,21.169456],[79.093574,21.166063],[79.093057,21.165976],[79.093166,21.164002],[79.091612,21.163494],[79.091047,21.16319],[79.090952,21.161129],[79.091019,21.160307],[79.091547,21.159585],[79.092944,21.160419],[79.093944,21.16097],[79.09515,21.161673],[79.096317,21.162057],[79.100088,21.162325],[79.100253,21.162338],[79.102784,21.163102],[79.106732,21.164321],[79.10679,21.165331],[79.106962,21.166173],[79.106959,21.167004],[79.107145,21.16843],[79.107017,21.168424],[79.107037,21.168895],[79.107326,21.171895],[79.107902,21.172029],[79.107742,21.172731],[79.106763,21.174158],[79.105193,21.176485],[79.10578,21.17685],[79.105855,21.176925]]]},"properties":{"name":"Prabhag No. 7\n","description":"Zone No 9. AashiNagar","styleUrl":"#poly-000000-1200-77","fill-opacity":0.30196078431372547,"fill":"#000000","stroke-opacity":1,"stroke":"#000000","stroke-width":1.2}},
{"type":"Feature","geometry":{"type":"Polygon","coordinates":[[[79.165737,21.137321],[79.160289,21.140688],[79.153675,21.144752],[79.153734,21.144875],[79.152674,21.145482],[79.15185,21.144305],[79.151062,21.144494],[79.150714,21.144664],[79.150439,21.144744],[79.150413,21.145293],[79.150696,21.145622],[79.150943,21.145686],[79.150927,21.14583],[79.151039,21.146542],[79.149324,21.147648],[79.149214,21.147511],[79.149331,21.147432],[79.149094,21.147266],[79.148684,21.147297],[79.148334,21.147112],[79.148051,21.146706],[79.147659,21.14628],[79.147111,21.146245],[79.146643,21.146256],[79.14614,21.146445],[79.145875,21.146422],[79.145878,21.146553],[79.145491,21.1465],[79.145015,21.146248],[79.144077,21.145512],[79.143629,21.145243],[79.142582,21.144935],[79.141896,21.144558],[79.141305,21.144062],[79.14074,21.143315],[79.140679,21.142253],[79.139995,21.142463],[79.138832,21.142165],[79.137748,21.141965],[79.136283,21.141826],[79.134975,21.141761],[79.133904,21.142054],[79.134032,21.141073],[79.13392,21.140532],[79.133625,21.138789],[79.128416,21.138812],[79.128354,21.136266],[79.128508,21.135975],[79.130708,21.133914],[79.129165,21.132582],[79.126967,21.130427],[79.1273,21.130255],[79.128346,21.130023],[79.128751,21.129723],[79.129517,21.129321],[79.131952,21.128142],[79.132814,21.127716],[79.1338,21.127153],[79.135029,21.126211],[79.136025,21.125513],[79.137419,21.124629],[79.139603,21.12385],[79.139968,21.123988],[79.14095,21.123951],[79.141724,21.123816],[79.14189,21.124575],[79.142296,21.124427],[79.143389,21.124263],[79.144323,21.124173],[79.14538,21.124146],[79.14619,21.124067],[79.147763,21.1237],[79.149465,21.123501],[79.149828,21.123413],[79.150517,21.123187],[79.152765,21.122382],[79.153138,21.122469],[79.15384,21.122554],[79.153925,21.122654],[79.153646,21.123689],[79.153449,21.124483],[79.153238,21.124916],[79.153276,21.125608],[79.153337,21.126263],[79.153437,21.126917],[79.155882,21.12636],[79.159353,21.125666],[79.16149,21.125315],[79.161502,21.125359],[79.162219,21.125268],[79.162655,21.127101],[79.163054,21.132432],[79.163441,21.132059],[79.164315,21.132166],[79.164429,21.13405],[79.16459,21.13454],[79.164714,21.13461],[79.166071,21.137114],[79.165737,21.137321]]]},"properties":{"name":"Prabhag No. 26\n","description":"Zone No 5. Nehru Nagar","styleUrl":"#poly-000000-1200-77","fill-opacity":0.30196078431372547,"fill":"#000000","stroke-opacity":1,"stroke":"#000000","stroke-width":1.2}},
{"type":"Feature","geometry":{"type":"Polygon","coordinates":[[[79.106732,21.164321],[79.102784,21.163102],[79.100253,21.162338],[79.100088,21.162325],[79.09983,21.161709],[79.100661,21.161281],[79.10289,21.160017],[79.104315,21.159551],[79.104353,21.15883],[79.10439,21.156753],[79.104326,21.156193],[79.104089,21.154936],[79.104048,21.154447],[79.106163,21.15456],[79.106723,21.154628],[79.106691,21.154714],[79.107099,21.154809],[79.108395,21.154945],[79.109577,21.154925],[79.110924,21.154673],[79.111242,21.156281],[79.11143,21.156209],[79.111577,21.156435],[79.111672,21.157078],[79.111796,21.157581],[79.11207,21.158217],[79.112396,21.158759],[79.112624,21.159104],[79.112918,21.159715],[79.113085,21.16025],[79.113621,21.161177],[79.114205,21.162068],[79.114893,21.162861],[79.1148,21.162912],[79.115311,21.16405],[79.115422,21.164543],[79.115446,21.164934],[79.115157,21.165473],[79.115227,21.165482],[79.115055,21.165967],[79.113798,21.165948],[79.111342,21.165627],[79.109447,21.165101],[79.106732,21.164321]]]},"properties":{"name":"Prabhag No. 20\n","description":"Zone No 7. Satranjipura","styleUrl":"#poly-000000-1200-77","fill-opacity":0.30196078431372547,"fill":"#000000","stroke-opacity":1,"stroke":"#000000","stroke-width":1.2}},
{"type":"Feature","geometry":{"type":"Polygon","coordinates":[[[79.135437,21.169315],[79.134936,21.169064],[79.133329,21.168283],[79.132777,21.169184],[79.132608,21.169361],[79.131325,21.170446],[79.129685,21.171893],[79.127717,21.174477],[79.125866,21.17665],[79.12039,21.174589],[79.119005,21.174798],[79.117079,21.174991],[79.11652,21.170131],[79.116533,21.169368],[79.116652,21.168402],[79.116871,21.167002],[79.116918,21.165788],[79.116936,21.165622],[79.118895,21.165445],[79.123048,21.165977],[79.125207,21.166171],[79.125807,21.163169],[79.125908,21.163132],[79.125968,21.162864],[79.126624,21.162932],[79.126806,21.161756],[79.126117,21.161689],[79.126268,21.160692],[79.126759,21.157539],[79.127881,21.157656],[79.128368,21.157718],[79.129806,21.158407],[79.130988,21.159584],[79.13137,21.160018],[79.131931,21.161149],[79.132971,21.163176],[79.133135,21.163212],[79.134277,21.16544],[79.134456,21.16573],[79.135549,21.166771],[79.135524,21.167294],[79.135437,21.169315]]]},"properties":{"name":"Prabhag No. 5\n","description":"Zone No 7. Satranjipura","styleUrl":"#poly-000000-1200-77","fill-opacity":0.30196078431372547,"fill":"#000000","stroke-opacity":1,"stroke":"#000000","stroke-width":1.2}},
{"type":"Feature","geometry":{"type":"Polygon","coordinates":[[[79.110924,21.154673],[79.112206,21.154465],[79.112102,21.154301],[79.112708,21.154141],[79.112819,21.154239],[79.112997,21.154215],[79.113076,21.15454],[79.114893,21.154553],[79.115888,21.154238],[79.11713,21.15433],[79.117947,21.154181],[79.120313,21.154114],[79.122745,21.153837],[79.124427,21.153507],[79.124494,21.155213],[79.123651,21.155337],[79.122703,21.156074],[79.122698,21.157212],[79.126769,21.157147],[79.126759,21.157539],[79.126268,21.160692],[79.126117,21.161689],[79.126806,21.161756],[79.126624,21.162932],[79.125968,21.162864],[79.125908,21.163132],[79.125807,21.163169],[79.125207,21.166171],[79.123048,21.165977],[79.118895,21.165445],[79.116936,21.165622],[79.115055,21.165967],[79.115227,21.165482],[79.115157,21.165473],[79.115446,21.164934],[79.115422,21.164543],[79.115311,21.16405],[79.1148,21.162912],[79.114893,21.162861],[79.114205,21.162068],[79.113621,21.161177],[79.113085,21.16025],[79.112918,21.159715],[79.112624,21.159104],[79.112396,21.158759],[79.11207,21.158217],[79.111796,21.157581],[79.111672,21.157078],[79.111577,21.156435],[79.11143,21.156209],[79.111242,21.156281],[79.110924,21.154673]]]},"properties":{"name":"Prabhag No. 21\n","description":"Zone No 7. Satranjipura","styleUrl":"#poly-000000-1200-77","fill-opacity":0.30196078431372547,"fill":"#000000","stroke-opacity":1,"stroke":"#000000","stroke-width":1.2}},
{"type":"Feature","geometry":{"type":"Polygon","coordinates":[[[79.125866,21.17665],[79.124823,21.177738],[79.123994,21.178287],[79.121331,21.180073],[79.119978,21.181324],[79.11795,21.182925],[79.117001,21.183911],[79.113248,21.181602],[79.112085,21.180883],[79.105855,21.176925],[79.10578,21.17685],[79.105193,21.176485],[79.106763,21.174158],[79.107742,21.172731],[79.107902,21.172029],[79.107326,21.171895],[79.107037,21.168895],[79.107017,21.168424],[79.107145,21.16843],[79.106959,21.167004],[79.106962,21.166173],[79.10679,21.165331],[79.106732,21.164321],[79.109447,21.165101],[79.111342,21.165627],[79.113798,21.165948],[79.115055,21.165967],[79.116936,21.165622],[79.116918,21.165788],[79.116871,21.167002],[79.116652,21.168402],[79.116533,21.169368],[79.11652,21.170131],[79.117079,21.174991],[79.119005,21.174798],[79.12039,21.174589],[79.125866,21.17665]]]},"properties":{"name":"Prabhag No. 6\n","description":"Zone No 9. AashiNagar","styleUrl":"#poly-000000-1200-77","fill-opacity":0.30196078431372547,"fill":"#000000","stroke-opacity":1,"stroke":"#000000","stroke-width":1.2}},
{"type":"Feature","geometry":{"type":"Polygon","coordinates":[[[79.125866,21.17665],[79.127717,21.174477],[79.129685,21.171893],[79.131325,21.170446],[79.132608,21.169361],[79.132777,21.169184],[79.133329,21.168283],[79.134936,21.169064],[79.135437,21.169315],[79.135233,21.172906],[79.134612,21.18257],[79.134422,21.185495],[79.132564,21.190788],[79.131286,21.190861],[79.131094,21.191113],[79.127695,21.191634],[79.127295,21.191132],[79.126496,21.18989],[79.125117,21.189201],[79.122228,21.187803],[79.12209,21.187675],[79.120554,21.186629],[79.118411,21.18466],[79.117001,21.183911],[79.11795,21.182925],[79.119978,21.181324],[79.121331,21.180073],[79.123994,21.178287],[79.124823,21.177738],[79.125866,21.17665]]]},"properties":{"name":"Prabhag No. 3","description":"Zone No 9. AashiNagar","styleUrl":"#poly-000000-1200-77","fill-opacity":0.30196078431372547,"fill":"#000000","stroke-opacity":1,"stroke":"#000000","stroke-width":1.2}}
]}